{
    "links": {
        "self": "http://www.neowsapp.com/rest/v1/neo/3712533?api_key=iIulBulltgU6a56xZRHN4H3l9WmuAYTsLGpBGhQ2"
    },
    "id": "3712533",
    "neo_reference_id": "3712533",
    "name": "(2015 DZ198)",
    "designation": "2015 DZ198",
    "nasa_jpl_url": "http://ssd.jpl.nasa.gov/sbdb.cgi?sstr=3712533",
    "absolute_magnitude_h": 24.6,
    "estimated_diameter": {
        "kilometers": {
            "estimated_diameter_min": 0.0319561887,
            "estimated_diameter_max": 0.0714562102
        },
        "meters": {
            "estimated_diameter_min": 31.9561886721,
            "estimated_diameter_max": 71.4562101727
        },
        "miles": {
            "estimated_diameter_min": 0.0198566489,
            "estimated_diameter_max": 0.0444008168
        },
        "feet": {
            "estimated_diameter_min": 104.8431420431,
            "estimated_diameter_max": 234.436392583
        }
    },
    "is_potentially_hazardous_asteroid": false,
    "close_approach_data": [
        {
            "close_approach_date": "2015-02-20",
            "close_approach_date_full": "2015-Feb-20 09:39",
            "epoch_date_close_approach": 1424425140000,
            "relative_velocity": {
                "kilometers_per_second": "9.4791123698",
                "kilometers_per_hour": "34124.8045314492",
                "miles_per_hour": "21203.8264601107"
            },
            "miss_distance": {
                "astronomical": "0.0127952495",
                "lunar": "4.9773520555",
                "kilometers": "1914142.071318565",
                "miles": "1189392.730243597"
            },
            "orbiting_body": "Earth"
        },
        {
            "close_approach_date": "2179-03-19",
            "close_approach_date_full": "2179-Mar-19 05:10",
            "epoch_date_close_approach": 6602101800000,
            "relative_velocity": {
                "kilometers_per_second": "17.3737974697",
                "kilometers_per_hour": "62545.6708910946",
                "miles_per_hour": "38863.4475600804"
            },
            "miss_distance": {
                "astronomical": "0.2649021934",
                "lunar": "103.0469532326",
                "kilometers": "39628803.890968058",
                "miles": "24624196.8986648804"
            },
            "orbiting_body": "Earth"
        }
    ],
    "orbital_data": {
        "orbit_id": "7",
        "orbit_determination_date": "2017-04-06 08:35:22",
        "first_observation_date": "2015-02-25",
        "last_observation_date": "2015-03-11",
        "data_arc_in_days": 14,
        "observations_used": 24,
        "orbit_uncertainty": "8",
        "minimum_orbit_intersection": ".0116198",
        "jupiter_tisserand_invariant": "3.729",
        "epoch_osculation": "2457080.5",
        "eccentricity": ".5207042830746039",
        "semi_major_axis": "1.93469061340152",
        "inclination": "3.067091687953656",
        "ascending_node_longitude": "162.4053742146106",
        "orbital_period": "982.9144363933588",
        "perihelion_distance": ".9272889245791157",
        "perihelion_argument": "311.9215074657579",
        "aphelion_distance": "2.942092302223924",
        "perihelion_time": "2457045.697718302498",
        "mean_anomaly": "12.74660433015222",
        "mean_motion": ".3662577195640347",
        "equinox": "J2000",
        "orbit_class": {
            "orbit_class_type": "APO",
            "orbit_class_description": "Near-Earth asteroid orbits which cross the Earth’s orbit similar to that of 1862 Apollo",
            "orbit_class_range": "a (semi-major axis) > 1.0 AU; q (perihelion) < 1.017 AU"
        }
    },
    "is_sentry_object": false
}